{
    "links": {
        "self": "http://www.neowsapp.com/rest/v1/neo/3728899?api_key=iIulBulltgU6a56xZRHN4H3l9WmuAYTsLGpBGhQ2"
    },
    "id": "3728899",
    "neo_reference_id": "3728899",
    "name": "(2015 TC)",
    "designation": "2015 TC",
    "nasa_jpl_url": "http://ssd.jpl.nasa.gov/sbdb.cgi?sstr=3728899",
    "absolute_magnitude_h": 23.9,
    "estimated_diameter": {
        "kilometers": {
            "estimated_diameter_min": 0.04411182,
            "estimated_diameter_max": 0.0986370281
        },
        "meters": {
            "estimated_diameter_min": 44.1118199997,
            "estimated_diameter_max": 98.6370281305
        },
        "miles": {
            "estimated_diameter_min": 0.0274098057,
            "estimated_diameter_max": 0.0612901888
        },
        "feet": {
            "estimated_diameter_min": 144.7238235278,
            "estimated_diameter_max": 323.6123073718
        }
    },
    "is_potentially_hazardous_asteroid": false,
    "close_approach_data": [
        {
            "close_approach_date": "2015-10-03",
            "close_approach_date_full": "2015-Oct-03 14:45",
            "epoch_date_close_approach": 1443883500000,
            "relative_velocity": {
                "kilometers_per_second": "10.2555567861",
                "kilometers_per_hour": "36920.0044300698",
                "miles_per_hour": "22940.6549748953"
            },
            "miss_distance": {
                "astronomical": "0.0929576767",
                "lunar": "36.1605362363",
                "kilometers": "13906270.434468629",
                "miles": "8640955.7615359202"
            },
            "orbiting_body": "Earth"
        }
    ],
    "orbital_data": {
        "orbit_id": "5",
        "orbit_determination_date": "2017-04-06 08:31:40",
        "first_observation_date": "2015-10-02",
        "last_observation_date": "2015-10-08",
        "data_arc_in_days": 6,
        "observations_used": 29,
        "orbit_uncertainty": "9",
        "minimum_orbit_intersection": ".0916097",
        "jupiter_tisserand_invariant": "4.474",
        "epoch_osculation": "2457300.5",
        "eccentricity": ".3085244470797723",
        "semi_major_axis": "1.484984861642817",
        "inclination": "17.31298135940262",
        "ascending_node_longitude": "2.140393480067264",
        "orbital_period": "660.9695710518926",
        "perihelion_distance": "1.026830728282635",
        "perihelion_argument": "46.22980446319688",
        "aphelion_distance": "1.943138995003",
        "perihelion_time": "2457336.426661425785",
        "mean_anomaly": "340.4323849694025",
        "mean_motion": ".5446544224828415",
        "equinox": "J2000",
        "orbit_class": {
            "orbit_class_type": "AMO",
            "orbit_class_description": "Near-Earth asteroid orbits similar to that of 1221 Amor",
            "orbit_class_range": "1.017 AU < q (perihelion) < 1.3 AU"
        }
    },
    "is_sentry_object": false
}